NORAD_CAT_ID,OBJECT_NAME,OBJECT_TYPE,EPOCH,MEAN_MOTION,ECCENTRICITY,INCLINATION,RA_OF_ASC_NODE,ARG_OF_PERICENTER,MEAN_ANOMALY,BSTAR,MEAN_MOTION_DOT,MEAN_MOTION_DDOT,TLE_LINE0,TLE_LINE1,TLE_LINE2,SEMIMAJOR_AXIS,PERIOD,APOGEE,PERIGEE,DECAYED
52562.0,STARLINK-3957,PAYLOAD,2024-01-31 02:58:14,15.08843682,0.0001623,53.2201,329.3466,103.2333,256.884,2.3121e-05,8e-07,0.0,0 STARLINK-3957,1 52562U 22051AF  24031.12377791  .00000080  00000-0  23121-4 0  9998,2 52562  53.2201 329.3466 0001623 103.2333 256.8840 15.08843682 95557,6917.869,95.437,540.857,538.611,0.0
52562.0,STARLINK-3957,PAYLOAD,2024-02-01 02:49:02,15.08834617,0.0001704,53.2201,324.8867,81.1063,279.0122,2.4492e-05,1.02e-06,0.0,0 STARLINK-3957,1 52562U 22051AF  24032.11738678  .00000102  00000-0  24492-4 0  9990,2 52562  53.2201 324.8867 0001704  81.1063 279.0122 15.08834617 95778,6917.897,95.438,540.941,538.583,0.0
52562.0,STARLINK-3957,PAYLOAD,2024-02-02 02:39:48,15.08850529,0.0002003,53.2195,320.4238,84.6537,275.4684,1.0492e-05,-1.21e-06,0.0,0 STARLINK-3957,1 52562U 22051AF  24033.11097887 -.00000121  00000-0  10492-4 0  9998,2 52562  53.2195 320.4238 0002003  84.6537 275.4684 15.08850529 95921,6917.848,95.437,541.099,538.328,0.0
52562.0,STARLINK-3957,PAYLOAD,2024-02-03 04:05:58,15.08844877,0.0001786,53.22,315.6625,71.1197,288.9989,0.00011109,1.481e-05,0.0,0 STARLINK-3957,1 52562U 22051AF  24034.17081991  .00001481  00000-0  11109-3 0  9998,2 52562  53.2200 315.6625 0001786  71.1197 288.9989 15.08844877 96088,6917.865,95.437,540.966,538.495,0.0
52562.0,STARLINK-3957,PAYLOAD,2024-02-04 03:56:45,15.08846253,0.0001799,53.22,311.1992,80.2022,279.9174,-1.6507e-06,-3.14e-06,0.0,0 STARLINK-3957,1 52562U 22051AF  24035.16442083 -.00000314  00000-0 -16507-5 0  9996,2 52562  53.2200 311.1992 0001799  80.2022 279.9174 15.08846253 96231,6917.861,95.437,540.971,538.482,0.0
52562.0,STARLINK-3957,PAYLOAD,2024-02-04 21:26:00,15.08845338,0.0001495,53.2186,307.9292,94.0914,266.0249,1.8228e-05,2e-08,0.0,0 STARLINK-3957,1 52562U 22051AF  24035.89305840  .00000002  00000-0  18228-4 0  9998,2 52562  53.2186 307.9292 0001495  94.0914 266.0249 15.08845338 96273,6917.864,95.437,540.763,538.695,0.0
52562.0,STARLINK-3957,PAYLOAD,2024-02-05 03:47:32,15.08843883,0.0001515,53.2184,306.7404,105.616,254.4999,6.0419e-05,6.74e-06,0.0,0 STARLINK-3957,1 52562U 22051AF  24036.15801670  .00000674  00000-0  60419-4 0  9994,2 52562  53.2184 306.7404 0001515 105.6160 254.4999 15.08843883 96319,6917.869,95.437,540.782,538.685,0.0
52562.0,STARLINK-3957,PAYLOAD,2024-02-05 22:52:10,15.08837874,0.0001619,53.2183,303.1713,102.7228,257.3946,7.6183e-06,-1.67e-06,0.0,0 STARLINK-3957,1 52562U 22051AF  24036.95290268 -.00000167  00000-0  76183-5 0  9991,2 52562  53.2183 303.1713 0001619 102.7228 257.3946 15.08837874 96430,6917.887,95.438,540.872,538.632,0.0
52562.0,STARLINK-3957,PAYLOAD,2024-02-06 03:38:20,15.08836978,0.0001651,53.2184,302.2799,104.8369,255.2806,-3.2065e-06,-3.39e-06,0.0,0 STARLINK-3957,1 52562U 22051AF  24037.15162369 -.00000339  00000-0 -32065-5 0  9997,2 52562  53.2184 302.2799 0001651 104.8369 255.2806 15.08836978 96537,6917.89,95.438,540.897,538.612,0.0
52562.0,STARLINK-3957,PAYLOAD,2024-02-06 22:42:57,15.08843401,0.0001647,53.2172,298.7113,123.8161,236.2989,-1.1179e-05,-4.66e-06,0.0,0 STARLINK-3957,1 52562U 22051AF  24037.94650003 -.00000466  00000-0 -11179-4 0  9994,2 52562  53.2172 298.7113 0001647 123.8161 236.2989 15.08843401 96584,6917.87,95.437,540.874,538.596,0.0
52562.0,STARLINK-3957,PAYLOAD,2024-02-07 03:29:06,15.08844437,0.0001835,53.2175,297.82,129.9382,230.1772,-4.9609e-06,-3.67e-06,0.0,0 STARLINK-3957,1 52562U 22051AF  24038.14521852 -.00000367  00000-0 -49609-5 0  9996,2 52562  53.2175 297.8200 0001835 129.9382 230.1772 15.08844437 96689,6917.867,95.437,541.001,538.462,0.0
52562.0,STARLINK-3957,PAYLOAD,2024-02-07 20:58:22,15.08833259,0.0002048,53.2166,294.5488,136.9518,223.1634,3.5368e-05,2.75e-06,0.0,0 STARLINK-3957,1 52562U 22051AF  24038.87386641  .00000275  00000-0  35368-4 0  9993,2 52562  53.2166 294.5488 0002048 136.9518 223.1634 15.08833259 96721,6917.901,95.438,541.183,538.349,0.0
52562.0,STARLINK-3957,PAYLOAD,2024-02-08 00:09:08,15.08838219,0.000112,53.2164,293.9626,113.6368,246.4742,-4.2198e-05,-9.59e-06,0.0,0 STARLINK-3957,1 52562U 22051AF  24039.00634727 -.00000959  00000-0 -42198-4 0  9990,2 52562  53.2164 293.9626 0001120 113.6368 246.4742 15.08838219 96810,6917.886,95.438,540.526,538.976,0.0
52562.0,STARLINK-3957,PAYLOAD,2024-02-08 09:41:26,15.08842149,0.000107,53.2168,292.1765,92.515,267.5965,2.5319e-05,1.15e-06,0.0,0 STARLINK-3957,1 52562U 22051AF  24039.40378463  .00000115  00000-0  25319-4 0  9994,2 52562  53.2168 292.1765 0001070  92.5150 267.5965 15.08842149 96804,6917.874,95.437,540.479,538.999,0.0
52562.0,STARLINK-3957,PAYLOAD,2024-02-08 22:24:32,15.08837493,0.0001243,53.2181,289.7996,112.1089,248.0035,-9.0053e-05,-1.721e-05,0.0,0 STARLINK-3957,1 52562U 22051AF  24039.93371527 -.00001721  00000-0 -90053-4 0  9999,2 52562  53.2181 289.7996 0001243 112.1089 248.0035 15.08837493 96885,6917.888,95.438,540.613,538.893,0.0
52562.0,STARLINK-3957,PAYLOAD,2024-02-09 01:35:18,15.08838812,0.0001268,53.2177,289.2008,100.2691,259.8444,-1.4613e-05,-5.2e-06,0.0,0 STARLINK-3957,1 52562U 22051AF  24040.06619138 -.00000520  00000-0 -14613-4 0  9992,2 52562  53.2177 289.2008 0001268 100.2691 259.8444 15.08838812 96973,6917.884,95.438,540.626,538.872,0.0
52562.0,STARLINK-3957,PAYLOAD,2024-02-10 01:26:03,15.08868134,0.0001056,53.2176,284.7435,94.5602,265.5511,0.00028338,4.228e-05,0.0,0 STARLINK-3957,1 52562U 22051AF  24041.05976375  .00004228  00000-0  28338-3 0  9996,2 52562  53.2176 284.7435 0001056  94.5602 265.5511 15.08868134 97125,6917.794,95.436,540.39,538.929,0.0
52562.0,STARLINK-3957,PAYLOAD,2024-02-10 20:30:43,15.08835693,0.0001143,53.2177,281.1736,80.1799,279.9322,0.00011507,1.544e-05,0.0,0 STARLINK-3957,1 52562U 22051AF  24041.85467032  .00001544  00000-0  11507-3 0  9997,2 52562  53.2177 281.1736 0001143  80.1799 279.9322 15.08835693 97242,6917.894,95.438,540.549,538.968,0.0
52562.0,STARLINK-3957,PAYLOAD,2024-02-10 22:06:06,15.08842529,8.74e-05,53.2165,280.8753,90.8441,269.2651,3.5052e-05,2.7e-06,0.0,0 STARLINK-3957,1 52562U 22051AF  24041.92090737  .00000270  00000-0  35052-4 0  9996,2 52562  53.2165 280.8753 0000874  90.8441 269.2651 15.08842529 97182,6917.873,95.437,540.342,539.133,0.0
52562.0,STARLINK-3957,PAYLOAD,2024-02-11 01:16:52,15.08845241,9.2e-05,53.2167,280.2794,102.0716,258.0379,5.7988e-05,6.35e-06,0.0,0 STARLINK-3957,1 52562U 22051AF  24042.05338455  .00000635  00000-0  57988-4 0  9990,2 52562  53.2167 280.2794 0000920 102.0716 258.0379 15.08845241 97273,6917.864,95.437,540.366,539.093,0.0
52562.0,STARLINK-3957,PAYLOAD,2024-02-11 21:56:52,15.08854215,0.0001053,53.217,276.4138,88.8925,271.2187,-0.000118,-2.166e-05,0.0,0 STARLINK-3957,1 52562U 22051AF  24042.91450181 -.00002166  00000-0 -11800-3 0  9991,2 52562  53.2170 276.4138 0001053  88.8925 271.2187 15.08854215 97339,6917.837,95.437,540.43,538.973,0.0
52562.0,STARLINK-3957,PAYLOAD,2024-02-12 20:12:17,15.08832843,0.0001094,53.2164,272.2511,80.0408,280.0708,4.3024e-05,3.97e-06,0.0,0 STARLINK-3957,1 52562U 22051AF  24043.84187324  .00000397  00000-0  43024-4 0  9996,2 52562  53.2164 272.2511 0001094  80.0408 280.0708 15.08832843 97549,6917.902,95.438,540.524,539.01,0.0
52562.0,STARLINK-3957,PAYLOAD,2024-02-12 21:47:40,15.08832618,0.0001118,53.2159,271.9535,74.9663,285.1453,2.5243e-05,1.14e-06,0.0,0 STARLINK-3957,1 52562U 22051AF  24043.90811335  .00000114  00000-0  25243-4 0  9999,2 52562  53.2159 271.9535 0001118  74.9663 285.1453 15.08832618 97483,6917.903,95.438,540.541,538.995,0.0
52562.0,STARLINK-3957,PAYLOAD,2024-02-13 00:58:27,15.08833764,0.0001135,53.2162,271.3585,80.1947,279.9174,3.2988e-05,2.37e-06,0.0,0 STARLINK-3957,1 52562U 22051AF  24044.04059267  .00000237  00000-0  32988-4 0  9993,2 52562  53.2162 271.3585 0001135  80.1947 279.9174 15.08833764 97506,6917.899,95.438,540.55,538.979,0.0
52562.0,STARLINK-3957,PAYLOAD,2024-02-13 21:38:27,15.08843319,0.0001149,53.2164,267.4924,90.5824,269.5299,5.7354e-05,6.25e-06,0.0,0 STARLINK-3957,1 52562U 22051AF  24044.90171064  .00000625  00000-0  57354-4 0  9993,2 52562  53.2164 267.4924 0001149  90.5824 269.5299 15.08843319 97639,6917.87,95.437,540.53,538.94,0.0
52562.0,STARLINK-3957,PAYLOAD,2024-02-14 00:49:13,15.08846469,0.0001211,53.2163,266.8973,89.4906,270.6225,4.0547e-05,3.58e-06,0.0,0 STARLINK-3957,1 52562U 22051AF  24045.03418929  .00000358  00000-0  40547-4 0  9991,2 52562  53.2163 266.8973 0001211  89.4906 270.6225 15.08846469 97724,6917.861,95.437,540.563,538.888,0.0
52562.0,STARLINK-3957,PAYLOAD,2024-02-15 07:01:34,15.08838226,0.0001186,53.2159,261.2472,86.5021,273.6107,0.00010219,1.339e-05,0.0,0 STARLINK-3957,1 52562U 22051AF  24046.29275517  .00001339  00000-0  10219-3 0  9996,2 52562  53.2159 261.2472 0001186  86.5021 273.6107 15.08838226 97914,6917.886,95.438,540.571,538.93,0.0
52562.0,STARLINK-3957,PAYLOAD,2024-02-15 14:58:30,15.08832176,0.0001251,53.2171,259.7623,93.39,266.7235,-4.7462e-05,-1.043e-05,0.0,0 STARLINK-3957,1 52562U 22051AF  24046.62396484 -.00001043  00000-0 -47462-4 0  9995,2 52562  53.2171 259.7623 0001251  93.3900 266.7235 15.08832176 97893,6917.904,95.438,540.635,538.904,0.0
52562.0,STARLINK-3957,PAYLOAD,2024-02-15 21:20:02,15.08839715,0.00012,53.2158,258.5735,98.0254,262.0874,2.956e-07,-2.83e-06,0.0,0 STARLINK-3957,1 52562U 22051AF  24046.88891818 -.00000283  00000-0  29560-6 0  9999,2 52562  53.2158 258.5735 0001200  98.0254 262.0874 15.08839715 97936,6917.881,95.438,540.576,538.916,0.0
52562.0,STARLINK-3957,PAYLOAD,2024-02-16 13:13:53,15.08840291,0.000168,53.2164,255.5985,85.6379,274.4805,6.8456e-05,8.02e-06,0.0,0 STARLINK-3957,1 52562U 22051AF  24047.55131809  .00000802  00000-0  68456-4 0  9992,2 52562  53.2164 255.5985 0001680  85.6379 274.4805 15.08840291 98033,6917.879,95.438,540.907,538.582,0.0
